{
  "type": "FeatureCollection",
  "features": [
    {"type":"Feature","properties":{"website":"http://ymcabr.org/","city":"BATON ROUGE","business_name":"A.C. LEWIS YMCA","phone_number":"225-924-3606","zip":"70806","full_address":"350 S FOSTER DR"},"geometry":{"type":"Point","coordinates":[-91.139613241069,30.445782204832]}},{"type":"Feature","properties":{"website":"http://ymcabr.org/","city":"BATON ROUGE","business_name":"A.C. LEWIS YMCA","phone_number":"225-924-3606","zip":"70806","full_address":"350 S FOSTER DR"},"geometry":{"type":"Point","coordinates":[-91.139613241069,30.445782204832]}},{"type":"Feature","properties":{"website":"http://ymcabr.org/","city":"ZACHARY","business_name":"AMERICANA YMCA","phone_number":"225-654-9622","zip":"70791","full_address":"4200 LIBERTY WAY"},"geometry":{"type":"Point","coordinates":[-91.208905784846,30.646881401627]}},{"type":"Feature","properties":{"website":"http://ymcabr.org/","city":"ZACHARY","business_name":"AMERICANA YMCA","phone_number":"225-654-9622","zip":"70791","full_address":"4200 LIBERTY WAY"},"geometry":{"type":"Point","coordinates":[-91.208905784846,30.646881401627]}},{"type":"Feature","properties":{"website":null,"city":"BATON ROUGE","business_name":"ANYTIME FITNESS","phone_number":null,"zip":"70817","full_address":"13711 COURSEY BLVD"},"geometry":{"type":"Point","coordinates":[-91.025374558451,30.409128736356]}},{"type":"Feature","properties":{"website":null,"city":"BATON ROUGE","business_name":"ANYTIME FITNESS","phone_number":null,"zip":"70808","full_address":"8827 HIGHLAND RD"},"geometry":{"type":"Point","coordinates":[-91.123279002162,30.369959257403]}},{"type":"Feature","properties":{"website":null,"city":"BATON ROUGE","business_name":"ANYTIME FITNESS","phone_number":null,"zip":"70802","full_address":"200 GOVERNMENT ST"},"geometry":{"type":"Point","coordinates":[-91.18828459467,30.443011074998]}},{"type":"Feature","properties":{"website":null,"city":"BATON ROUGE","business_name":"AQUATIC CLUB OF BATON ROUGE","phone_number":null,"zip":"70815","full_address":"10555 MOLLYLEA DR"},"geometry":{"type":"Point","coordinates":[-91.067583322425,30.453583224712]}},{"type":"Feature","properties":{"website":"http://ymcabr.org/","city":"BATON ROUGE","business_name":"BARANCO-CLARK YMCA","phone_number":"225-344-6775","zip":"70802","full_address":"1735 THOMAS H DELPIT DR"},"geometry":{"type":"Point","coordinates":[-91.176792933794,30.432019301326]}},{"type":"Feature","properties":{"website":"http://ymcabr.org/","city":"BATON ROUGE","business_name":"BARANCO-CLARK YMCA","phone_number":"225-344-6775","zip":"70802","full_address":"1735 THOMAS H DELPIT DR"},"geometry":{"type":"Point","coordinates":[-91.176792933794,30.432019301326]}},{"type":"Feature","properties":{"website":null,"city":"BATON ROUGE","business_name":"BODY MECHANICS PERSONAL FITNESS","phone_number":null,"zip":"70809","full_address":"7580 CORPORATE BLVD"},"geometry":{"type":"Point","coordinates":[-91.110947468831,30.430307021198]}},{"type":"Feature","properties":{"website":null,"city":"BATON ROUGE","business_name":"BR FITNESS LLC","phone_number":null,"zip":"70816","full_address":"10778 N HARRELL'S FERRY RD"},"geometry":{"type":"Point","coordinates":[-91.065182029783,30.432906229751]}},{"type":"Feature","properties":{"website":null,"city":"BATON ROUGE","business_name":"C AND P FITNESS","phone_number":null,"zip":"70816","full_address":"2736 O'NEAL LN, STE G"},"geometry":{"type":"Point","coordinates":[-91.008671883573,30.429567800673]}},{"type":"Feature","properties":{"website":"http://ymcabr.org/","city":"BATON ROUGE","business_name":"C.B. PENNINGTON JR. YMCA","phone_number":"225-272-9622","zip":"70816","full_address":"15550 OLD HAMMOND HWY"},"geometry":{"type":"Point","coordinates":[-91.011579902589,30.457338137897]}},{"type":"Feature","properties":{"website":null,"city":"BATON ROUGE","business_name":"CENTURION FITNESS","phone_number":null,"zip":"70817","full_address":"14241 AIRLINE HWY"},"geometry":{"type":"Point","coordinates":[-91.022806967463,30.365767462389]}},{"type":"Feature","properties":{"website":null,"city":"BATON ROUGE","business_name":"C. G.'S GYMNASTICS CLUB","phone_number":null,"zip":"70819","full_address":"14550 FLORIDA BLVD"},"geometry":{"type":"Point","coordinates":[-91.024081759782,30.463135615218]}},{"type":"Feature","properties":{"website":null,"city":"BATON ROUGE","business_name":"CHAMPIONS FITNESS LLC","phone_number":null,"zip":"70817","full_address":"5441 JONES CREEK RD"},"geometry":{"type":"Point","coordinates":[-91.015180089969,30.404523307259]}},{"type":"Feature","properties":{"website":null,"city":"BATON ROUGE","business_name":"CHAMPIONS FITNESS LLC","phone_number":null,"zip":"70817","full_address":"5664 JONES CREEK RD, STE C-D"},"geometry":{"type":"Point","coordinates":[-91.017447438804,30.402298858226]}},{"type":"Feature","properties":{"website":"http://ymcabr.org/","city":"BATON ROUGE","business_name":"CHARLES W. LAMAR, JR. YMCA","phone_number":"225-612-9622","zip":"70802","full_address":"521 3RD ST"},"geometry":{"type":"Point","coordinates":[-91.188507394347,30.452367300895]}},{"type":"Feature","properties":{"website":"http://ymcabr.org/","city":"BATON ROUGE","business_name":"CHARLES W. LAMAR, JR. YMCA","phone_number":"225-612-9622","zip":"70802","full_address":"521 3RD ST"},"geometry":{"type":"Point","coordinates":[-91.188507394347,30.452367300895]}},{"type":"Feature","properties":{"website":null,"city":"BATON ROUGE","business_name":"CITY FITNESS CLUB","phone_number":null,"zip":"70816","full_address":"15356 OLD HAMMOND HWY"},"geometry":{"type":"Point","coordinates":[-91.014945449463,30.456358344535]}},{"type":"Feature","properties":{"website":null,"city":"BATON ROUGE","business_name":"DAKMAK PERFORMANCE FITNESS","phone_number":null,"zip":"70809","full_address":"11616 INDUSTRIPLEX BLVD, STE 1"},"geometry":{"type":"Point","coordinates":[-91.052945508999,30.385639940672]}},{"type":"Feature","properties":{"website":null,"city":"BATON ROUGE","business_name":"DEFINITIONS PERSONAL TRAINERS-FITNESS","phone_number":null,"zip":"70810","full_address":"16645 HIGHLAND RD, STE G2"},"geometry":{"type":"Point","coordinates":[-91.04286647083,30.346265122235]}},{"type":"Feature","properties":{"website":"http://ymcabr.org/","city":"BATON ROUGE","business_name":"EXXONMOBIL YMCA","phone_number":"225-906-5424","zip":"70807","full_address":"7717 HOWELL BLVD"},"geometry":{"type":"Point","coordinates":[-91.155546613189,30.515508423246]}},{"type":"Feature","properties":{"website":"http://ymcabr.org/","city":"BATON ROUGE","business_name":"EXXONMOBIL YMCA","phone_number":"225-906-5424","zip":"70807","full_address":"7717 HOWELL BLVD"},"geometry":{"type":"Point","coordinates":[-91.155546613189,30.515508423246]}},{"type":"Feature","properties":{"website":null,"city":"BATON ROUGE","business_name":"FITNESS CONCEPTS OF BATON ROUGE LLC","phone_number":null,"zip":"70816","full_address":"11143 MURIEL AVE"},"geometry":{"type":"Point","coordinates":[-91.059517926086,30.434909584215]}},{"type":"Feature","properties":{"website":null,"city":"BATON ROUGE","business_name":"FLIPS AND FITNESS","phone_number":null,"zip":"70817","full_address":"5517 JONES CREEK RD"},"geometry":{"type":"Point","coordinates":[-91.016141019586,30.404007968493]}},{"type":"Feature","properties":{"website":null,"city":"BATON ROUGE","business_name":"FOXY'S HEALTH & RACQUET CLUB","phone_number":null,"zip":"70816","full_address":"4343 RHODA DR"},"geometry":{"type":"Point","coordinates":[-91.061076499113,30.411087940445]}},{"type":"Feature","properties":{"website":null,"city":"BATON ROUGE","business_name":"FUTURE FITNESS WELLNESS CENTER","phone_number":null,"zip":"70806","full_address":"674 CADDO ST"},"geometry":{"type":"Point","coordinates":[-91.137683586407,30.442908283015]}},{"type":"Feature","properties":{"website":null,"city":"BATON ROUGE","business_name":"GO VAPOR","phone_number":null,"zip":"70808","full_address":"8841 HIGHLAND RD"},"geometry":{"type":"Point","coordinates":[-91.12270061544,30.369991350003]}},{"type":"Feature","properties":{"website":null,"city":"BATON ROUGE","business_name":"JAZZERCISE","phone_number":null,"zip":"70817","full_address":"4606 JONES CREEK RD, STE 160"},"geometry":{"type":"Point","coordinates":[-91.015893773668,30.41192815033]}},{"type":"Feature","properties":{"website":null,"city":"BATON ROUGE","business_name":"JAZZERCISE","phone_number":null,"zip":"70808","full_address":"2561 CITIPLACE CT"},"geometry":{"type":"Point","coordinates":[-91.129348904911,30.423890135135]}},{"type":"Feature","properties":{"website":null,"city":"BATON ROUGE","business_name":"JAZZERCISE","phone_number":null,"zip":"70808","full_address":"8821 HIGHLAND RD"},"geometry":{"type":"Point","coordinates":[-91.123123008951,30.370132997231]}},{"type":"Feature","properties":{"website":null,"city":"BATON ROUGE","business_name":"JEFFERSON TERRACE AQUATIC CLUB","phone_number":null,"zip":"70809","full_address":"10183 E INNISWOLD RD"},"geometry":{"type":"Point","coordinates":[-91.071356341925,30.399829007514]}},{"type":"Feature","properties":{"website":null,"city":"BATON ROUGE","business_name":"KETCHAM FITNESS CENTER","phone_number":null,"zip":"70810","full_address":"7222 BLUEBONNET BLVD"},"geometry":{"type":"Point","coordinates":[-91.095549673731,30.386356798984]}},{"type":"Feature","properties":{"website":null,"city":"BATON ROUGE","business_name":"LA FITNESS AND PRO RESULTS","phone_number":null,"zip":"70810","full_address":"10000 PERKINS ROWE, STE 100"},"geometry":{"type":"Point","coordinates":[-91.095815364931,30.378524870459]}},{"type":"Feature","properties":{"website":null,"city":"BATON ROUGE","business_name":"LA FITNESS AND PRO RESULTS","phone_number":null,"zip":"70809","full_address":"6474 SIEGEN LN"},"geometry":{"type":"Point","coordinates":[-91.062937195224,30.391777755646]}},{"type":"Feature","properties":{"website":null,"city":"BATON ROUGE","business_name":"MAGNOLIA WOOD SWIM AND RACQUET CLUB","phone_number":null,"zip":"70808","full_address":"1159 MAGNOLIA WOOD AVE"},"geometry":{"type":"Point","coordinates":[-91.117272150092,30.388244249313]}},{"type":"Feature","properties":{"website":null,"city":"BATON ROUGE","business_name":"MAX FITNESS","phone_number":null,"zip":"70808","full_address":"7353 HIGHLAND RD"},"geometry":{"type":"Point","coordinates":[-91.138267242763,30.37944530411]}},{"type":"Feature","properties":{"website":null,"city":"BATON ROUGE","business_name":"MAX FITNESS","phone_number":null,"zip":"70808","full_address":"7347 HIGHLAND RD"},"geometry":{"type":"Point","coordinates":[-91.138653605256,30.379618761537]}},{"type":"Feature","properties":{"website":null,"city":"ZACHARY","business_name":"MERGE FITNESS","phone_number":null,"zip":"70791","full_address":"1326 CHURCH ST"},"geometry":{"type":"Point","coordinates":[-91.190532093624,30.653551876119]}},{"type":"Feature","properties":{"website":null,"city":"BATON ROUGE","business_name":"NICK ORTEGO FITNESS, LLC","phone_number":null,"zip":"70809","full_address":"8224 SUMMA AVE"},"geometry":{"type":"Point","coordinates":[-91.100656498547,30.398878929357]}},{"type":"Feature","properties":{"website":null,"city":"BATON ROUGE","business_name":"NO EGO FITNESS LLC","phone_number":null,"zip":"70809","full_address":"11930 INDUSTRIPLEX BLVD, STE 9"},"geometry":{"type":"Point","coordinates":[-91.049130116064,30.384272384866]}},{"type":"Feature","properties":{"website":null,"city":"BATON ROUGE","business_name":"PARK FOREST SWIM CLUB","phone_number":null,"zip":"70814","full_address":"10085 GREAT SMOKY AVE"},"geometry":{"type":"Point","coordinates":[-91.072239581327,30.478957674742]}},{"type":"Feature","properties":{"website":"http://ymcabr.org/","city":"BATON ROUGE","business_name":"PAULA G. MANSHIP YMCA & LAMAR TENNIS CENTER","phone_number":"225-767-9622","zip":"70810","full_address":"8100 YMCA PLAZA DR"},"geometry":{"type":"Point","coordinates":[-91.076141869753,30.375108102401]}},{"type":"Feature","properties":{"website":"http://ymcabr.org/","city":"BATON ROUGE","business_name":"PAULA G. MANSHIP YMCA & LAMAR TENNIS CENTER","phone_number":"225-767-9622","zip":"70810","full_address":"8100 YMCA PLAZA DR"},"geometry":{"type":"Point","coordinates":[-91.076141869753,30.375108102401]}},{"type":"Feature","properties":{"website":null,"city":"BATON ROUGE","business_name":"PLANET FITNESS","phone_number":null,"zip":"70806","full_address":"8620 AIRLINE HWY"},"geometry":{"type":"Point","coordinates":[-91.097020142105,30.450582053383]}},{"type":"Feature","properties":{"website":null,"city":"BATON ROUGE","business_name":"POWER GYM OF BATON ROUGE","phone_number":null,"zip":"70816","full_address":"2084 S SHERWOOD FOREST BLVD"},"geometry":{"type":"Point","coordinates":[-91.058558414648,30.434499345809]}},{"type":"Feature","properties":{"website":null,"city":"ZACHARY","business_name":"PROGRESSIVE FITNESS","phone_number":null,"zip":"70791","full_address":"5041 ZACHARY-SLAUGHTER HWY"},"geometry":{"type":"Point","coordinates":[-91.150236050258,30.652603933348]}},{"type":"Feature","properties":{"website":null,"city":"BATON ROUGE","business_name":"QUALITY FITNESS PERFECTED - QFP","phone_number":null,"zip":"70814","full_address":"8882 SYBLE DR"},"geometry":{"type":"Point","coordinates":[-91.093358898032,30.479588170938]}},{"type":"Feature","properties":{"website":null,"city":"BATON ROUGE","business_name":"RED STICK CROSSFIT","phone_number":null,"zip":"70806","full_address":"3057 GOVERNMENT ST"},"geometry":{"type":"Point","coordinates":[-91.156962145149,30.444476126632]}},{"type":"Feature","properties":{"website":null,"city":"BATON ROUGE","business_name":"RESULTS PERSONAL FITNESS","phone_number":null,"zip":"70808","full_address":"7520 PERKINS RD"},"geometry":{"type":"Point","coordinates":[-91.11090948979,30.395455855328]}},{"type":"Feature","properties":{"website":null,"city":"BATON ROUGE","business_name":"S. E. MACKEY FITNESS CENTER","phone_number":null,"zip":"70811","full_address":"6534 FORD ST"},"geometry":{"type":"Point","coordinates":[-91.125805219176,30.518787389197]}},{"type":"Feature","properties":{"website":null,"city":"BATON ROUGE","business_name":"SHERWOOD FOREST JAZZERCISE","phone_number":null,"zip":"70815","full_address":"1357 SHARP RD"},"geometry":{"type":"Point","coordinates":[-91.064743370713,30.44078346618]}},{"type":"Feature","properties":{"website":null,"city":"BATON ROUGE","business_name":"SNAP FITNESS","phone_number":null,"zip":"70810","full_address":"7731 PERKINS RD, STE 110"},"geometry":{"type":"Point","coordinates":[-91.107226674337,30.394003296829]}},{"type":"Feature","properties":{"website":null,"city":"ZACHARY","business_name":"SNAP FITNESS","phone_number":null,"zip":"70791","full_address":"20377 OLD SCENIC HWY"},"geometry":{"type":"Point","coordinates":[-91.194851500194,30.653128522627]}},{"type":"Feature","properties":{"website":null,"city":"BATON ROUGE","business_name":"SNAP FITNESS","phone_number":null,"zip":"70817","full_address":"17002 JEFFERSON HWY, STE A"},"geometry":{"type":"Point","coordinates":[-91.003353396465,30.361815707194]}},{"type":"Feature","properties":{"website":null,"city":"BATON ROUGE","business_name":"SNAP FITNESS","phone_number":null,"zip":"70808","full_address":"257 LEE DR"},"geometry":{"type":"Point","coordinates":[-91.158313602092,30.396110683036]}},{"type":"Feature","properties":{"website":null,"city":"BATON ROUGE","business_name":"SNAP FITNESS","phone_number":null,"zip":"70810","full_address":"7731 PERKINS RD"},"geometry":{"type":"Point","coordinates":[-91.106857637484,30.393738191034]}},{"type":"Feature","properties":{"website":null,"city":"GREENWELL SPRINGS","business_name":"SNAP FITNESS","phone_number":null,"zip":"70739","full_address":"14485 GREENWELL SPRINGS RD"},"geometry":{"type":"Point","coordinates":[-91.028208260945,30.514395445538]}},{"type":"Feature","properties":{"website":null,"city":"BATON ROUGE","business_name":"SNAP FITNESS","phone_number":null,"zip":"70806","full_address":"3455 GOVERNMENT ST"},"geometry":{"type":"Point","coordinates":[-91.154011449723,30.444741692988]}},{"type":"Feature","properties":{"website":"http://ymcabr.org/","city":"BATON ROUGE","business_name":"SOUTHSIDE YMCA","phone_number":null,"zip":"70810","full_address":"8482 PERKINS RD"},"geometry":{"type":"Point","coordinates":[-91.105274127956,30.387827426326]}},{"type":"Feature","properties":{"website":null,"city":"BATON ROUGE","business_name":"SPECTRUM FITNESS CLUB","phone_number":null,"zip":"70814","full_address":"3103 MONTERREY DR"},"geometry":{"type":"Point","coordinates":[-91.084297830779,30.476970784885]}},{"type":"Feature","properties":{"website":null,"city":"BATON ROUGE","business_name":"SPECTRUM FITNESS & LADY SPECTRUM","phone_number":null,"zip":"70808","full_address":"4355 PERKINS RD"},"geometry":{"type":"Point","coordinates":[-91.144970191882,30.418107005005]}},{"type":"Feature","properties":{"website":null,"city":"BATON ROUGE","business_name":"SPECTRUM PERKINS","phone_number":null,"zip":"70808","full_address":"7069 PERKINS RD"},"geometry":{"type":"Point","coordinates":[-91.115643268655,30.399769978827]}},{"type":"Feature","properties":{"website":null,"city":"BATON ROUGE","business_name":"TAEKWONDO PLUS FITNESS CENTER","phone_number":null,"zip":"70817","full_address":"14160 COURSEY BLVD"},"geometry":{"type":"Point","coordinates":[-91.020420820501,30.407222126943]}},{"type":"Feature","properties":{"website":null,"city":"BATON ROUGE","business_name":"THERAPUTIC BY DESIGN FITNESS AND WELLNESS","phone_number":null,"zip":"70809","full_address":"8752 QUARTERS LAKE RD"},"geometry":{"type":"Point","coordinates":[-91.093680999744,30.416217963936]}},{"type":"Feature","properties":{"website":null,"city":"BATON ROUGE","business_name":"TRANSFORM FX FITNESS LLC","phone_number":null,"zip":"70809","full_address":"9171 CASTILLE RD"},"geometry":{"type":"Point","coordinates":[-91.032489632642,30.365211622767]}},{"type":"Feature","properties":{"website":null,"city":"BATON ROUGE","business_name":"TRINITY HOLISTIC HEALTH & TRAINING","phone_number":null,"zip":"70810","full_address":"13219 PERKINS RD"},"geometry":{"type":"Point","coordinates":[-91.071482755062,30.367614649334]}},{"type":"Feature","properties":{"website":null,"city":"BATON ROUGE","business_name":"VILLAGE ST. GEORGE AQUATIC CLUB","phone_number":null,"zip":"70810","full_address":"1708 PECK DR"},"geometry":{"type":"Point","coordinates":[-91.070609603867,30.360247260101]}},{"type":"Feature","properties":{"website":null,"city":"BATON ROUGE","business_name":"WEIGHT ROOM, THE","phone_number":null,"zip":"70814","full_address":"3556 MONTERREY DR"},"geometry":{"type":"Point","coordinates":[-91.083144120562,30.483720570994]}},{"type":"Feature","properties":{"website":null,"city":"BATON ROUGE","business_name":"YOUR TIME FITNESS","phone_number":null,"zip":"70817","full_address":"15450 GEORGE O'NEAL RD"},"geometry":{"type":"Point","coordinates":[-91.013513103938,30.406947241539]}}]
}